     3.00           N                   E                   RINEX VERSION / TYPE
BRD_USR             ESA                 20190109 191635  UTCPGM / RUN BY / DATE
 GAL   4.8500E+01  5.8594E-02 -4.1504E-03  0.0000E+00       IONOSPHERIC CORR
GAUT  0.0000000000E+00 0.000000000E+00 259200 2035 GSTB   0 TIME SYSTEM CORR
GPGA -1.7753336579E-09-4.440892099E-15 345600 2035 GSTB   0 TIME SYSTEM CORR
                                                            END OF HEADER
E01 2019 01 09 17 10 00-5.172129021958E-04-8.171241461241E-12 0.000000000000E+00
     2.300000000000E+01 2.275000000000E+01 2.573678632617E-09-5.193328021243E-02
     9.983777999878E-07 1.115344930440E-04 1.109391450882E-05 5.440618677139E+03
     3.210000000000E+05 9.313225746155E-09-2.947876232158E+00 5.774199962616E-08
     9.902516163203E-01 1.171875000000E+02-7.605144827780E-01-5.231646490504E-09
    -6.303834008561E-10 5.210000000000E+02 2.035000000000E+03 0.000000000000E+00
     3.120000000000E+00 0.000000000000E+00-4.656612873077E-09-5.355104804039E-09
     3.216850000000E+05 0.000000000000E+00 0.000000000000E+00 0.000000000000E+00
E03 2019 01 09 17 10 00-1.203108695336E-04-4.220623850415E-12 0.000000000000E+00
     2.300000000000E+01 3.021875000000E+01 3.381569427369E-09-2.473931098349E+00
     1.277774572372E-06 2.612144453451E-04 9.495764970779E-06 5.440615821838E+03
     3.210000000000E+05-3.911554813385E-08 1.242778228142E+00-5.587935447693E-09
     9.523614368080E-01 1.324062500000E+02 6.090243710068E-01-5.568089076117E-09
     5.696665860428E-10 5.210000000000E+02 2.035000000000E+03 0.000000000000E+00
     3.120000000000E+00 0.000000000000E+00-2.095475792885E-09-2.328306436539E-09
     3.216850000000E+05 0.000000000000E+00 0.000000000000E+00 0.000000000000E+00
E04 2019 01 09 17 10 00-1.965891569853E-04-7.830180948076E-12 0.000000000000E+00
     2.300000000000E+01 4.656250000000E+00 3.373711957216E-09-1.647204906730E+00
     2.123415470123E-07 7.054116576910E-05 9.648501873016E-06 5.440615058899E+03
     3.210000000000E+05 2.235174179077E-08 1.242828755869E+00-1.676380634308E-08
     9.524045753363E-01 1.333125000000E+02 2.142998719127E+00-5.506300788101E-09
     5.521658570671E-10 5.210000000000E+02 2.035000000000E+03 0.000000000000E+00
     3.120000000000E+00 0.000000000000E+00-7.916241884232E-09-9.080395102501E-09
     3.216850000000E+05 0.000000000000E+00 0.000000000000E+00 0.000000000000E+00
E07 2019 01 09 17 10 00-1.094649196602E-04-7.133849067031E-12 0.000000000000E+00
     2.300000000000E+01 1.578125000000E+01 3.427285617346E-09 2.873945301483E+00
     8.028000593185E-07 1.404914073646E-04 1.040473580360E-05 5.440615806580E+03
     3.210000000000E+05-1.490116119385E-08 1.242779467233E+00 5.401670932770E-08
     9.524048123290E-01 1.127500000000E+02-2.608260927966E-02-5.540945088318E-09
     5.978820470442E-10 5.210000000000E+02 2.035000000000E+03 0.000000000000E+00
     3.120000000000E+00 0.000000000000E+00 2.328306436539E-10 2.328306436539E-10
     3.216850000000E+05 0.000000000000E+00 0.000000000000E+00 0.000000000000E+00
E08 2019 01 09 17 10 00 6.426710868254E-03-7.574385563203E-12 0.000000000000E+00
     2.300000000000E+01 2.950000000000E+01 3.266921794692E-09-3.092940599151E+00
     1.270323991776E-06 2.159711439162E-04 1.013092696667E-05 5.440618700027E+03
     3.210000000000E+05-2.607703208923E-08 1.234154835160E+00 2.235174179077E-08
     9.583489059587E-01 1.235312500000E+02 4.442410444912E-01-5.514872573722E-09
     6.003821511836E-10 5.210000000000E+02 2.035000000000E+03 0.000000000000E+00
     3.120000000000E+00 0.000000000000E+00-8.614733815193E-09-9.778887033463E-09
     3.216850000000E+05 0.000000000000E+00 0.000000000000E+00 0.000000000000E+00
E09 2019 01 09 17 10 00 6.563228089362E-03-1.135447291745E-11 0.000000000000E+00
     2.300000000000E+01 1.484375000000E+01 3.250492538919E-09-3.675402525211E-01
     7.674098014832E-07 2.418806543574E-04 9.259209036827E-06 5.440621055603E+03
     3.210000000000E+05 1.303851604462E-08 1.234151944434E+00-4.470348358154E-08
     9.583789733139E-01 1.441562500000E+02 7.377107468994E-02-5.490943005531E-09
     5.682379551060E-10 5.210000000000E+02 2.035000000000E+03 0.000000000000E+00
     3.120000000000E+00 0.000000000000E+00-3.259629011154E-09-3.958120942116E-09
     3.216850000000E+05 0.000000000000E+00 0.000000000000E+00 0.000000000000E+00
E11 2019 01 09 17 10 00 5.719421606045E-03 9.094947017729E-13 0.000000000000E+00
     2.300000000000E+01-3.990625000000E+01 3.016197065286E-09 2.163926814089E+00
    -1.896172761917E-06 2.593207173049E-04-1.732259988785E-07 5.440604017258E+03
     3.210000000000E+05 2.793967723846E-08-8.624603268544E-01 1.303851604462E-08
     9.819001052006E-01 3.533750000000E+02-3.622428930305E-01-5.869530203778E-09
    -7.143154683922E-12 5.210000000000E+02 2.035000000000E+03 0.000000000000E+00
     3.120000000000E+00 0.000000000000E+00-1.839362084866E-08-2.002343535423E-08
     3.216850000000E+05 0.000000000000E+00 0.000000000000E+00 0.000000000000E+00
E12 2019 01 09 17 10 00 5.905490135774E-03 8.429879017058E-11 0.000000000000E+00
     2.300000000000E+01-2.521875000000E+01 3.050841365503E-09-2.797379851379E+00
    -1.119449734688E-06 3.880875883624E-04 2.607703208923E-08 5.440599676132E+03
     3.210000000000E+05 1.117587089539E-08-8.624761102776E-01 4.842877388000E-08
     9.819142720993E-01 3.484375000000E+02-8.804808282464E-01-5.887745248222E-09
     1.857220217820E-11 5.210000000000E+02 2.035000000000E+03 0.000000000000E+00
     3.120000000000E+00 0.000000000000E+00-1.559965312481E-08-1.583248376846E-08
     3.216850000000E+05 0.000000000000E+00 0.000000000000E+00 0.000000000000E+00
E13 2019 01 09 17 10 00 3.815251402557E-04 4.405364961713E-13 0.000000000000E+00
     2.300000000000E+01-4.078125000000E+01 3.041198106680E-09 2.259475013118E-01
    -1.884996891022E-06 3.411213401705E-04-1.229345798492E-07 5.440596200943E+03
     3.210000000000E+05-2.421438694000E-08-8.677539939398E-01-5.401670932770E-08
     9.851413333308E-01 3.549062500000E+02-1.559399753156E+00-5.909889027743E-09
    -4.571618997710E-11 5.210000000000E+02 2.035000000000E+03 0.000000000000E+00
     3.120000000000E+00 4.550000000000E+02-4.656612873077E-09-5.587935447693E-09
     3.216850000000E+05 0.000000000000E+00 0.000000000000E+00 0.000000000000E+00
E14 2019 01 09 17 10 00 6.462380290031E-03-5.542233338929E-12 0.000000000000E+00
     2.300000000000E+01 4.340625000000E+01 6.870286174996E-09-6.578601840487E-01
     3.030523657799E-06 1.663148483494E-01 6.331130862236E-06 5.289310190201E+03
     3.210000000000E+05-2.320855855942E-06-1.463740670789E+00 1.180917024612E-06
     8.825725085161E-01 2.435000000000E+02 1.455629730695E+00-1.167155759579E-08
     5.353794435599E-10 5.210000000000E+02 2.035000000000E+03 0.000000000000E+00
     3.120000000000E+00 4.550000000000E+02 3.329478204250E-08 3.725290298462E-08
     3.216850000000E+05 0.000000000000E+00 0.000000000000E+00 0.000000000000E+00
E24 2019 01 09 17 10 00 6.294647580944E-03-1.968203378055E-11 0.000000000000E+00
     2.300000000000E+01 1.981250000000E+01 2.636538393835E-09-2.848502293154E+00
     9.704381227493E-07 4.723063902929E-04 1.073069870472E-05 5.440619253159E+03
     3.210000000000E+05-5.587935447693E-09-2.944411004937E+00-1.676380634308E-08
     9.878186592065E-01 1.220312500000E+02 4.605702180154E-01-5.237718171986E-09
    -5.253790270024E-10 5.210000000000E+02 2.035000000000E+03 0.000000000000E+00
     3.120000000000E+00 0.000000000000E+00 4.260800778866E-08 4.773028194904E-08
     3.216850000000E+05 0.000000000000E+00 0.000000000000E+00 0.000000000000E+00
E25 2019 01 09 17 10 00 1.928830228280E-03-1.129762949859E-11 0.000000000000E+00
     2.300000000000E+01 3.196875000000E+01 2.517604868348E-09-1.793926218628E+00
     1.352280378342E-06 2.095773816109E-04 1.060217618942E-05 5.440633153915E+03
     3.210000000000E+05-4.842877388000E-08-2.950492207638E+00 5.587935447693E-09
     9.898197585146E-01 1.247500000000E+02-1.357002475320E+00-5.199145136692E-09
    -5.603804849537E-10 5.210000000000E+02 2.035000000000E+03 0.000000000000E+00
     3.120000000000E+00 0.000000000000E+00-1.396983861923E-09-1.629814505577E-09
     3.216850000000E+05 0.000000000000E+00 0.000000000000E+00 0.000000000000E+00
E27 2019 01 09 17 10 00 5.530990893021E-04-7.744915819785E-12 0.000000000000E+00
     2.300000000000E+01 4.281250000000E+01 2.569035582072E-09 1.654802937505E+00
     2.037733793259E-06 2.027148148045E-04 1.096725463867E-05 5.440630586624E+03
     3.210000000000E+05 5.960464477539E-08-2.950467719852E+00-3.911554813385E-08
     9.897867360648E-01 1.147187500000E+02-8.788561392230E-01-5.188073246932E-09
    -5.903817346261E-10 5.210000000000E+02 2.035000000000E+03 0.000000000000E+00
     3.120000000000E+00 0.000000000000E+00-2.328306436539E-09-3.026798367500E-09
     3.216850000000E+05 0.000000000000E+00 0.000000000000E+00 0.000000000000E+00
E33 2019 01 09 17 10 00 8.478888194077E-04 5.684341886081E-14 0.000000000000E+00
     2.300000000000E+01-2.621875000000E+01 2.979766976398E-09-1.434253301081E+00
    -1.186504960060E-06 3.656040644273E-04 8.568167686462E-08 5.440592237473E+03
     3.210000000000E+05-2.421438694000E-08-8.677903986562E-01 3.166496753693E-08
     9.851375487617E-01 3.506562500000E+02-1.472776995805E+00-5.889531036893E-09
     3.893019302737E-11 5.210000000000E+02 2.035000000000E+03 0.000000000000E+00
     3.120000000000E+00 4.550000000000E+02-8.149072527885E-09-9.313225746155E-09
     3.216850000000E+05 0.000000000000E+00 0.000000000000E+00 0.000000000000E+00
